[{"OBJECT_NAME":"OBJECT D","OBJECT_ID":"2024-105D","EPOCH":"2026-03-10T00:24:43.734240","MEAN_MOTION":15.21426907,"ECCENTRICITY":0.00113854,"INCLINATION":97.5907,"RA_OF_ASC_NODE":87.0934,"ARG_OF_PERICENTER":197.271,"MEAN_ANOMALY":162.8139,"EPHEMERIS_TYPE":0,"CLASSIFICATION_TYPE":"U","NORAD_CAT_ID":59920,"ELEMENT_SET_NO":999,"REV_AT_EPOCH":9817,"BSTAR":0.0003392179,"MEAN_MOTION_DOT":7.559e-5,"MEAN_MOTION_DDOT":0},{"OBJECT_NAME":"COSMOS 1275 DEB","OBJECT_ID":"1981-053PA","EPOCH":"2026-03-08T15:19:20.112672","MEAN_MOTION":15.17408079,"ECCENTRICITY":0.00116181,"INCLINATION":83.059,"RA_OF_ASC_NODE":288.5099,"ARG_OF_PERICENTER":114.3087,"MEAN_ANOMALY":306.5278,"EPHEMERIS_TYPE":0,"CLASSIFICATION_TYPE":"U","NORAD_CAT_ID":39964,"ELEMENT_SET_NO":999,"REV_AT_EPOCH":62291,"BSTAR":0.0038016178,"MEAN_MOTION_DOT":0.00076824,"MEAN_MOTION_DDOT":0}]
